GLOBALSTAR M069         
1 31573U 07020C   26203.16670047 -.00000055  00000+0  34284-3 0  9996
2 31573  52.0018 153.1191 0001492 225.8321 237.1613 12.23472498883089
GLOBALSTAR M072         
1 31574U 07020D   26202.88131900 -.00000090  00000+0 -79605-4 0  9992
2 31574  51.9955   7.8804 0001633  47.2104 101.2495 11.91658743879117
GLOBALSTAR M066         
1 32265U 07048C   26203.32694402 -.00000025  00000+0  59145-3 0  9994
2 32265  51.9610 317.0380 0005480 116.3209 278.9500 12.30390412864557
GLOBALSTAR M079         
1 37188U 10054A   26202.83774087 -.00000100  00000+0  19606-4 0  9990
2 37188  52.0058   3.1884 0001120  88.5148  58.3700 12.62266429726920
GLOBALSTAR M074         
1 37189U 10054B   26202.43981824 -.00000107  00000+0 -17690-4 0  9995
2 37189  52.0036   3.6599 0000844 102.6785 274.9845 12.62262026727489
GLOBALSTAR M076         
1 37190U 10054C   26202.70274966 -.00000086  00000+0  10185-3 0  9995
2 37190  52.0052   3.0659 0001086 100.9140 272.0427 12.62262629727232
GLOBALSTAR M077         
1 37191U 10054D   26202.70286249 -.00000095  00000+0 -30994-3 0  9994
2 37191  51.9962  91.6897 0002160 237.1616 155.1753 11.67547132725176
GLOBALSTAR M075         
1 37192U 10054E   26202.55825236 -.00000107  00000+0 -20758-4 0  9995
2 37192  51.9956  45.5403 0000791  73.8767 302.7973 12.62267898726282
GLOBALSTAR M073         
1 37193U 10054F   26202.82930944 -.00000093  00000+0  62734-4 0  9992
2 37193  52.0080 318.8434 0000980 106.8607  60.4287 12.62267003728302
GLOBALSTAR M083         
1 37739U 11033A   26202.49171848 -.00000096  00000+0  44624-4 0  9990
2 37739  51.9864 268.0551 0000710 109.3025 264.4002 12.62256760697286
GLOBALSTAR M088         
1 37740U 11033B   26203.11384389 -.00000091  00000+0  73306-4 0  9992
2 37740  52.0193 172.6686 0000167  33.6216  47.2898 12.62269519692901
GLOBALSTAR M091         
1 37741U 11033C   26203.30493051 -.00000092  00000+0  68269-4 0  9994
2 37741  51.9991 135.0013 0000590  35.6251 134.5383 12.62264340693710
GLOBALSTAR M085         
1 37742U 11033D   26202.70375390 -.00000098  00000+0  31570-4 0  9994
2 37742  52.0129  88.1541 0000897  53.1832 323.8145 12.62264523694151
GLOBALSTAR M081         
1 37743U 11033E   26202.65061375 -.00000100  00000+0  23641-4 0  9998
2 37743  51.9960  90.7126 0000772  63.9518 311.3404 12.62265396694297
GLOBALSTAR M089         
1 37744U 11033F   26202.95659135 -.00000106  00000+0 -14043-4 0  9992
2 37744  51.9941  43.9325 0000722  97.4342  50.1053 12.62267627695175
GLOBALSTAR M084         
1 38040U 11080A   26202.46521567 -.00000095  00000+0  48349-4 0  9999
2 38040  52.0008 272.9305 0000695 141.6940 231.5843 12.62263695673098
GLOBALSTAR M080         
1 38041U 11080B   26202.62444278 -.00000092  00000+0  66805-4 0  9995
2 38041  52.0056 274.1764 0000298  67.6103  79.2348 12.62257650673239
GLOBALSTAR M082         
1 38042U 11080C   26202.48647069 -.00000096  00000+0  45310-4 0  9995
2 38042  52.0052 230.0995 0000205  52.5721 117.0966 12.62264358673926
GLOBALSTAR M092         
1 38043U 11080D   26203.09397512 -.00000089  00000+0  83183-4 0  9991
2 38043  52.0106 318.6487 0000710 112.8854  58.1590 12.62267975672457
GLOBALSTAR M090         
1 38044U 11080E   26203.20533388 -.00000094  00000+0  56147-4 0  9994
2 38044  52.0096 221.8780 0000386  78.6966 358.0885 12.62269630674135
GLOBALSTAR M086         
1 38045U 11080F   26202.45000521 -.00000101  00000+0  16429-4 0  9997
2 38045  51.9870 224.0497 0001407 120.4881  26.4341 12.62287850673980
GLOBALSTAR M097         
1 39072U 13005A   26203.00385111 -.00000106  00000+0 -10578-4 0  9995
2 39072  52.0037 137.3498 0000571  47.1537 312.9378 12.62271272621302
GLOBALSTAR M093         
1 39073U 13005B   26202.81874545 -.00000091  00000+0  71140-4 0  9992
2 39073  52.0100 131.2739 0000796  53.6410 306.4530 12.62266423621238
GLOBALSTAR M094         
1 39074U 13005C   26203.29371225 -.00000106  00000+0 -14110-4 0  9995
2 39074  51.9970  43.9101 0001046  74.6470 285.4512 12.62264268622908
GLOBALSTAR M096         
1 39075U 13005D   26202.99049773 -.00000093  00000+0  58616-4 0  9995
2 39075  52.0077  93.6628 0000853  54.2289 305.8657 12.62265930621781
GLOBALSTAR M078         
1 39076U 13005E   26203.28038619 -.00000090  00000+0  74678-4 0  9999
2 39076  51.9850 176.7415 0001008 358.0095   2.0767 12.62260123620448
GLOBALSTAR M095         
1 39077U 13005F   26203.06949752 -.00000090  00000+0  77259-4 0  9993
2 39077  52.0056 175.0364 0000620  24.9640 335.1257 12.62264140620276
GLOBALSTAR M087         
1 52888U 22064A   26203.32013074 -.00000089  00000+0  83892-4 0  9999
2 52888  52.0014 315.4934 0000880  93.2826 266.8141 12.62269498195574
